KUZGTU 1 (RS47S)        
1 57217U 23091AV  26200.59934171  .00006201  00000+0  21250-3 0  9997
2 57217  97.5041 265.4223 0009612 350.1164   9.9886 15.30526266169330
SONATE-2                
1 59112U 24043Q   26200.40440229  .00027038  00000+0  32202-3 0  9997
2 59112  97.5568 352.8429 0006650  92.9788 267.2230 15.61057540132915
MESAT1                  
1 60209U 24125G   26200.52295384  .00044344  00000+0  41900-3 0  9994
2 60209  97.2239  58.8227 0010736  99.1244 261.1232 15.66820481114621
OOV-CUBE (TUBSAT-30)    
1 60240U 24128F   26200.45871086  .00000925  00000+0  83259-4 0  9994
2 60240  61.9942 113.0338 0040559 140.9471 219.4561 15.02883584110962
COLIBRI-S (RS67S)       
1 61746U 24199M   26200.63328016  .00012963  00000+0  24108-3 0  9996
2 61746  97.2938  74.8052 0009441 147.4577 212.7258 15.48968222142431
HORS 3 (RS81S)          
1 61753U 24199U   26200.62817273  .00024266  00000+0  33530-3 0  9999
2 61753  97.2921  77.1600 0007596 142.3283 217.8506 15.57118708142600
HORS 4 (RS82S)          
1 61754U 24199V   26200.61015837  .00034684  00000+0  38694-3 0  9996
2 61754  97.2862  78.5724 0007392 136.2009 223.9837 15.62697437142702
SIT-2086                
1 61764U 24199AF  26200.64584326  .00024399  00000+0  36124-3 0  9992
2 61764  97.2879  77.5415 0008524 131.4539 228.7449 15.55233479139476
HYPERVIEW 1G (RS66S)    
1 61772U 24199AP  26200.65744673  .00178222  00000+0  68405-3 0  9997
2 61772  97.2782  82.2628 0008272 139.6444 220.5443 15.86890506139807
ALTAIR (RS65S)          
1 61779U 24199AW  26200.59240153  .00005923  00000+0  16256-3 0  9995
2 61779  97.2985  69.7350 0012531 180.4515 179.6721 15.37562166142099
ASRTU-1 (AO-123)        
1 61781U 24199AY  26200.61008308  .00004024  00000+0  11648-3 0  9996
2 61781  97.2955  68.9909 0013507 184.3726 175.7403 15.36090768138903
SAMSAT-IONOSPHERE (RS7*)
1 61784U 24199BB  26200.60035664  .00029870  00000+0  36392-3 0  9992
2 61784  97.2885  77.3099 0009664 146.5090 213.6780 15.60408106142614
RTU MIREA 1 (RS51S)     
1 61785U 24199BC  26200.60894766  .00041071  00000+0  42350-3 0  9997
2 61785  97.2871  78.3359 0009720 142.0339 218.1607 15.64654665139532
TEVEL2-4                
1 63213U 25052D   26200.64250594  .00010253  00000+0  29789-3 0  9992
2 63213  97.3853  97.1061 0003169  43.0133 317.1358 15.35661719 75092
TEVEL2-5                
1 63214U 25052E   26200.60165346  .00010499  00000+0  30684-3 0  9997
2 63214  97.3852  97.0033 0003191  45.3967 314.7537 15.35471509 75082
TEVEL2-6                
1 63215U 25052F   26200.15853610  .00009478  00000+0  27766-3 0  9998
2 63215  97.3857  96.5439 0003317  47.9788 312.1737 15.35425857 75013
TEVEL2-1                
1 63217U 25052H   26200.45987699  .00009640  00000+0  28744-3 0  9996
2 63217  97.3828  96.4310 0003918  51.1832 308.9761 15.34859218 75048
TEVEL2-3                
1 63218U 25052J   26200.25768580  .00009570  00000+0  28485-3 0  9995
2 63218  97.3840  96.2545 0003742  52.6845 307.4739 15.34918835 75013
TEVEL2-2                
1 63219U 25052K   26200.52516782  .00009775  00000+0  29131-3 0  9997
2 63219  97.3830  96.4993 0003972  51.2578 308.9020 15.34871976 75052
OTP-2                   
1 63235U 25052AB  26200.26460893  .00003412  00000+0  14216-3 0  9997
2 63235  97.3824  92.2179 0007980  59.8339 300.3688 15.24366519 74758
TEVEL2-9                
1 63237U 25052AD  26200.21882993  .00008721  00000+0  27749-3 0  9996
2 63237  97.3893  95.4966 0007321  45.4826 314.7014 15.32806992 74931
TEVEL2-7                
1 63238U 25052AE  26200.46202924  .00008616  00000+0  27686-3 0  9997
2 63238  97.3895  95.6412 0007412  45.1189 315.0654 15.32492190 74960
TEVEL2-8                
1 63239U 25052AF  26200.20940773  .00008420  00000+0  27078-3 0  9999
2 63239  97.3897  95.3655 0007477  46.6510 313.5354 15.32473641 74920
INNOSAT 16 (RS92S7)     
1 64878U 25155C   26200.59983317  .00002906  00000+0  11650-3 0  9998
2 64878  97.4589 167.6358 0012378  75.2701 284.9908 15.25765618 85612
GEOSCAN 6 (RS92S6)      
1 64879U 25155D   26200.61127017  .00005761  00000+0  19651-3 0  9990
2 64879  97.4580 169.3061 0009808  69.7073 290.5221 15.30705446 85720
GEOSCAN 1 (RS92S1)      
1 64880U 25155E   26200.60045001  .00006114  00000+0  20423-3 0  9995
2 64880  97.4576 169.4727 0009725  70.0272 290.2015 15.31356770 85733
239ALFEROV (RS61S)      
1 64881U 25155F   26200.58689050  .00008323  00000+0  25716-3 0  9995
2 64881  97.4574 170.1341 0009441  69.9245 290.3013 15.33744642 85779
GEOSCAN 2 (RS92S2)      
1 64890U 25155Q   26200.58858277  .00006055  00000+0  20074-3 0  9996
2 64890  97.4574 169.6258 0008807  60.3173 299.8944 15.31614214 85742
GEOSCAN 5 (RS92S5)      
1 64891U 25155R   26200.56933800  .00007879  00000+0  24135-3 0  9998
2 64891  97.4567 170.2659 0008492  74.9315 285.2866 15.34047702 85788
GEOSCAN 4 (RS92S4)      
1 64892U 25155S   26200.61534190  .00008389  00000+0  25542-3 0  9994
2 64892  97.4573 170.3707 0008396  75.1137 285.1035 15.34218964 85797
