OBJECT_NAME,OBJECT_ID,EPOCH,MEAN_MOTION,ECCENTRICITY,INCLINATION,RA_OF_ASC_NODE,ARG_OF_PERICENTER,MEAN_ANOMALY,EPHEMERIS_TYPE,CLASSIFICATION_TYPE,NORAD_CAT_ID,ELEMENT_SET_NO,REV_AT_EPOCH,BSTAR,MEAN_MOTION_DOT,MEAN_MOTION_DDOT
KUZGTU 1 (RS47S),2023-091AV,2026-07-19T14:23:03.123744,15.30526266,.00096126,97.5041,265.4223,350.1164,9.9886,0,U,57217,999,16933,.21250397E-3,.6201E-4,0
SONATE-2,2024-043Q,2026-07-19T09:42:20.357856,15.61057540,.00066507,97.5568,352.8429,92.9788,267.2230,0,U,59112,999,13291,.32201618E-3,.27038E-3,0
MESAT1,2024-125G,2026-07-19T12:33:03.211776,15.66820481,.00107363,97.2239,58.8227,99.1244,261.1232,0,U,60209,999,11462,.41900414E-3,.44344E-3,0
OOV-CUBE (TUBSAT-30),2024-128F,2026-07-19T11:00:32.618304,15.02883584,.00405598,61.9942,113.0338,140.9471,219.4561,0,U,60240,999,11096,.83259311E-4,.925E-5,0
COLIBRI-S (RS67S),2024-199M,2026-07-19T15:11:55.405824,15.48968222,.00094411,97.2938,74.8052,147.4577,212.7258,0,U,61746,999,14243,.24107928E-3,.12963E-3,0
HORS 3 (RS81S),2024-199U,2026-07-19T15:04:34.123872,15.57118708,.00075965,97.2921,77.1600,142.3283,217.8506,0,U,61753,999,14260,.33530322E-3,.24266E-3,0
HORS 4 (RS82S),2024-199V,2026-07-19T14:38:37.683168,15.62697437,.00073922,97.2862,78.5724,136.2009,223.9837,0,U,61754,999,14270,.38694412E-3,.34684E-3,0
SIT-2086,2024-199AF,2026-07-19T15:30:00.857664,15.55233479,.00085246,97.2879,77.5415,131.4539,228.7449,0,U,61764,999,13947,.36123536E-3,.24399E-3,0
HYPERVIEW 1G (RS66S),2024-199AP,2026-07-19T15:46:43.397472,15.86890506,.00082722,97.2782,82.2628,139.6444,220.5443,0,U,61772,999,13980,.68404593E-3,.178222E-2,0
ALTAIR (RS65S),2024-199AW,2026-07-19T14:13:03.492192,15.37562166,.00125318,97.2985,69.7350,180.4515,179.6721,0,U,61779,999,14209,.16255754E-3,.5923E-4,0
ASRTU-1 (AO-123),2024-199AY,2026-07-19T14:38:31.178112,15.36090768,.00135078,97.2955,68.9909,184.3726,175.7403,0,U,61781,999,13890,.11647732E-3,.4024E-4,0
SAMSAT-IONOSPHERE (RS75S),2024-199BB,2026-07-19T14:24:30.813696,15.60408106,.00096642,97.2885,77.3099,146.5090,213.6780,0,U,61784,999,14261,.36392368E-3,.2987E-3,0
RTU MIREA 1 (RS51S),2024-199BC,2026-07-19T14:36:53.077824,15.64654665,.000972,97.2871,78.3359,142.0339,218.1607,0,U,61785,999,13953,.42349786E-3,.41071E-3,0
TEVEL2-4,2025-052D,2026-07-19T15:25:12.513216,15.35661719,.00031699,97.3853,97.1061,43.0133,317.1358,0,U,63213,999,7509,.29789287E-3,.10253E-3,0
TEVEL2-5,2025-052E,2026-07-19T14:26:22.858944,15.35471509,.0003191,97.3852,97.0033,45.3967,314.7537,0,U,63214,999,7508,.30683538E-3,.10499E-3,0
TEVEL2-6,2025-052F,2026-07-19T03:48:17.519040,15.35425857,.00033179,97.3857,96.5439,47.9788,312.1737,0,U,63215,999,7501,.27765753E-3,.9478E-4,0
TEVEL2-1,2025-052H,2026-07-19T11:02:13.371936,15.34859218,.00039185,97.3828,96.4310,51.1832,308.9761,0,U,63217,999,7504,.287441E-3,.964E-4,0
TEVEL2-3,2025-052J,2026-07-19T06:11:04.053120,15.34918835,.00037425,97.3840,96.2545,52.6845,307.4739,0,U,63218,999,7501,.28484641E-3,.957E-4,0
TEVEL2-2,2025-052K,2026-07-19T12:36:14.499648,15.34871976,.00039721,97.3830,96.4993,51.2578,308.9020,0,U,63219,999,7505,.29131232E-3,.9775E-4,0
OTP-2,2025-052AB,2026-07-19T06:21:02.211552,15.24366519,.00079805,97.3824,92.2179,59.8339,300.3688,0,U,63235,999,7475,.14216323E-3,.3412E-4,0
TEVEL2-9,2025-052AD,2026-07-19T05:15:06.905952,15.32806992,.00073214,97.3893,95.4966,45.4826,314.7014,0,U,63237,999,7493,.27748568E-3,.8721E-4,0
TEVEL2-7,2025-052AE,2026-07-19T11:05:19.326336,15.32492190,.00074123,97.3895,95.6412,45.1189,315.0654,0,U,63238,999,7496,.27686013E-3,.8616E-4,0
TEVEL2-8,2025-052AF,2026-07-19T05:01:32.827872,15.32473641,.00074778,97.3897,95.3655,46.6510,313.5354,0,U,63239,999,7492,.27077917E-3,.842E-4,0
INNOSAT 16 (RS92S7),2025-155C,2026-07-19T14:23:45.585888,15.25765618,.0012378,97.4589,167.6358,75.2701,284.9908,0,U,64878,999,8561,.11650393E-3,.2906E-4,0
GEOSCAN 6 (RS92S6),2025-155D,2026-07-19T14:40:13.742688,15.30705446,.00098088,97.4580,169.3061,69.7073,290.5221,0,U,64879,999,8572,.19651079E-3,.5761E-4,0
GEOSCAN 1 (RS92S1),2025-155E,2026-07-19T14:24:38.880864,15.31356770,.00097251,97.4576,169.4727,70.0272,290.2015,0,U,64880,999,8573,.20423172E-3,.6114E-4,0
239ALFEROV (RS61S),2025-155F,2026-07-19T14:05:07.339200,15.33744642,.00094419,97.4574,170.1341,69.9245,290.3013,0,U,64881,999,8577,.25716489E-3,.8323E-4,0
GEOSCAN 2 (RS92S2),2025-155Q,2026-07-19T14:07:33.551328,15.31614214,.00088074,97.4574,169.6258,60.3173,299.8944,0,U,64890,999,8574,.20074208E-3,.6055E-4,0
GEOSCAN 5 (RS92S5),2025-155R,2026-07-19T13:39:50.803200,15.34047702,.00084927,97.4567,170.2659,74.9315,285.2866,0,U,64891,999,8578,.24134826E-3,.7879E-4,0
GEOSCAN 4 (RS92S4),2025-155S,2026-07-19T14:46:05.540160,15.34218964,.00083968,97.4573,170.3707,75.1137,285.1035,0,U,64892,999,8579,.25542411E-3,.8389E-4,0
